{
"type": "FeatureCollection",
"name": "detected_hexagons",
"crs": { "type": "name", "properties": { "name": "urn:ogc:def:crs:OGC:1.3:CRS84" } },
"features": [
{ "type": "Feature", "properties": { "h3_index": "8d2a10725b6d63f", "resolution": 13, "pavement_id": 1 }, "geometry": { "type": "Polygon", "coordinates": [ [ [ -73.9861953, 40.7573935 ], [ -73.9862383, 40.7573743 ], [ -73.9862369, 40.7573384 ], [ -73.9861925, 40.7573216 ], [ -73.9861496, 40.7573407 ], [ -73.986151, 40.7573767 ], [ -73.9861953, 40.7573935 ] ] ] } },
{ "type": "Feature", "properties": { "h3_index": "8d2a10725b6d73f", "resolution": 13, "pavement_id": 1 }, "geometry": { "type": "Polygon", "coordinates": [ [ [ -73.9861538, 40.7574485 ], [ -73.9861968, 40.7574294 ], [ -73.9861953, 40.7573935 ], [ -73.986151, 40.7573767 ], [ -73.9861081, 40.7573958 ], [ -73.9861095, 40.7574318 ], [ -73.9861538, 40.7574485 ] ] ] } },
{ "type": "Feature", "properties": { "h3_index": "8d2a100d679327f", "resolution": 13, "pavement_id": 2 }, "geometry": { "type": "Polygon", "coordinates": [ [ [ -73.9856386, 40.7576783 ], [ -73.9856815, 40.7576592 ], [ -73.9856801, 40.7576232 ], [ -73.9856358, 40.7576064 ], [ -73.9855929, 40.7576256 ], [ -73.9855943, 40.7576615 ], [ -73.9856386, 40.7576783 ] ] ] } },
{ "type": "Feature", "properties": { "h3_index": "8d2a100d679e43f", "resolution": 13, "pavement_id": 2 }, "geometry": { "type": "Polygon", "coordinates": [ [ [ -73.9856344, 40.7575705 ], [ -73.9856773, 40.7575514 ], [ -73.9856759, 40.7575154 ], [ -73.9856316, 40.7574986 ], [ -73.9855886, 40.7575178 ], [ -73.98559, 40.7575537 ], [ -73.9856344, 40.7575705 ] ] ] } },
{ "type": "Feature", "properties": { "h3_index": "8d2a100d679e47f", "resolution": 13, "pavement_id": 2 }, "geometry": { "type": "Polygon", "coordinates": [ [ [ -73.9855886, 40.7575178 ], [ -73.9856316, 40.7574986 ], [ -73.9856302, 40.7574627 ], [ -73.9855858, 40.7574459 ], [ -73.9855429, 40.7574651 ], [ -73.9855443, 40.757501 ], [ -73.9855886, 40.7575178 ] ] ] } },
{ "type": "Feature", "properties": { "h3_index": "8d2a100d679e4bf", "resolution": 13, "pavement_id": 2 }, "geometry": { "type": "Polygon", "coordinates": [ [ [ -73.9857217, 40.7575681 ], [ -73.9857646, 40.757549 ], [ -73.9857632, 40.7575131 ], [ -73.9857188, 40.7574963 ], [ -73.9856759, 40.7575154 ], [ -73.9856773, 40.7575514 ], [ -73.9857217, 40.7575681 ] ] ] } },
{ "type": "Feature", "properties": { "h3_index": "8d2a100d679e4ff", "resolution": 13, "pavement_id": 2 }, "geometry": { "type": "Polygon", "coordinates": [ [ [ -73.9856759, 40.7575154 ], [ -73.9857188, 40.7574963 ], [ -73.9857174, 40.7574603 ], [ -73.9856731, 40.7574436 ], [ -73.9856302, 40.7574627 ], [ -73.9856316, 40.7574986 ], [ -73.9856759, 40.7575154 ] ] ] } },
{ "type": "Feature", "properties": { "h3_index": "8d2a100d679e53f", "resolution": 13, "pavement_id": 2 }, "geometry": { "type": "Polygon", "coordinates": [ [ [ -73.9855929, 40.7576256 ], [ -73.9856358, 40.7576064 ], [ -73.9856344, 40.7575705 ], [ -73.98559, 40.7575537 ], [ -73.9855471, 40.7575729 ], [ -73.9855485, 40.7576088 ], [ -73.9855929, 40.7576256 ] ] ] } },
{ "type": "Feature", "properties": { "h3_index": "8d2a100d679e5bf", "resolution": 13, "pavement_id": 2 }, "geometry": { "type": "Polygon", "coordinates": [ [ [ -73.9856801, 40.7576232 ], [ -73.9857231, 40.7576041 ], [ -73.9857217, 40.7575681 ], [ -73.9856773, 40.7575514 ], [ -73.9856344, 40.7575705 ], [ -73.9856358, 40.7576064 ], [ -73.9856801, 40.7576232 ] ] ] } },
{ "type": "Feature", "properties": { "h3_index": "8d2a100d679e7bf", "resolution": 13, "pavement_id": 2 }, "geometry": { "type": "Polygon", "coordinates": [ [ [ -73.9856302, 40.7574627 ], [ -73.9856731, 40.7574436 ], [ -73.9856717, 40.7574076 ], [ -73.9856273, 40.7573908 ], [ -73.9855844, 40.75741 ], [ -73.9855858, 40.7574459 ], [ -73.9856302, 40.7574627 ] ] ] } },
{ "type": "Feature", "properties": { "h3_index": "8d2a10725b6d07f", "resolution": 13, "pavement_id": 2 }, "geometry": { "type": "Polygon", "coordinates": [ [ [ -73.9859793, 40.7574533 ], [ -73.9860222, 40.7574341 ], [ -73.9860208, 40.7573982 ], [ -73.9859764, 40.7573814 ], [ -73.9859335, 40.7574005 ], [ -73.9859349, 40.7574365 ], [ -73.9859793, 40.7574533 ] ] ] } },
{ "type": "Feature", "properties": { "h3_index": "8d2a10725b6d33f", "resolution": 13, "pavement_id": 2 }, "geometry": { "type": "Polygon", "coordinates": [ [ [ -73.9859335, 40.7574005 ], [ -73.9859764, 40.7573814 ], [ -73.985975, 40.7573455 ], [ -73.9859307, 40.7573287 ], [ -73.9858878, 40.7573478 ], [ -73.9858892, 40.7573838 ], [ -73.9859335, 40.7574005 ] ] ] } },
{ "type": "Feature", "properties": { "h3_index": "8d2a10725b6d3bf", "resolution": 13, "pavement_id": 2 }, "geometry": { "type": "Polygon", "coordinates": [ [ [ -73.9860208, 40.7573982 ], [ -73.9860637, 40.757379 ], [ -73.9860623, 40.7573431 ], [ -73.986018, 40.7573263 ], [ -73.985975, 40.7573455 ], [ -73.9859764, 40.7573814 ], [ -73.9860208, 40.7573982 ] ] ] } },
{ "type": "Feature", "properties": { "h3_index": "8d2a10725b6da3f", "resolution": 13, "pavement_id": 2 }, "geometry": { "type": "Polygon", "coordinates": [ [ [ -73.9858047, 40.757458 ], [ -73.9858476, 40.7574388 ], [ -73.9858462, 40.7574029 ], [ -73.9858019, 40.7573861 ], [ -73.985759, 40.7574053 ], [ -73.9857604, 40.7574412 ], [ -73.9858047, 40.757458 ] ] ] } },
{ "type": "Feature", "properties": { "h3_index": "8d2a10725b6da7f", "resolution": 13, "pavement_id": 2 }, "geometry": { "type": "Polygon", "coordinates": [ [ [ -73.985759, 40.7574053 ], [ -73.9858019, 40.7573861 ], [ -73.9858005, 40.7573502 ], [ -73.9857561, 40.7573334 ], [ -73.9857132, 40.7573525 ], [ -73.9857146, 40.7573885 ], [ -73.985759, 40.7574053 ] ] ] } },
{ "type": "Feature", "properties": { "h3_index": "8d2a10725b6dabf", "resolution": 13, "pavement_id": 2 }, "geometry": { "type": "Polygon", "coordinates": [ [ [ -73.985892, 40.7574556 ], [ -73.9859349, 40.7574365 ], [ -73.9859335, 40.7574005 ], [ -73.9858892, 40.7573838 ], [ -73.9858462, 40.7574029 ], [ -73.9858476, 40.7574388 ], [ -73.985892, 40.7574556 ] ] ] } },
{ "type": "Feature", "properties": { "h3_index": "8d2a10725b6daff", "resolution": 13, "pavement_id": 2 }, "geometry": { "type": "Polygon", "coordinates": [ [ [ -73.9858462, 40.7574029 ], [ -73.9858892, 40.7573838 ], [ -73.9858878, 40.7573478 ], [ -73.9858434, 40.757331 ], [ -73.9858005, 40.7573502 ], [ -73.9858019, 40.7573861 ], [ -73.9858462, 40.7574029 ] ] ] } },
{ "type": "Feature", "properties": { "h3_index": "8d2a10725b6db3f", "resolution": 13, "pavement_id": 2 }, "geometry": { "type": "Polygon", "coordinates": [ [ [ -73.9857632, 40.7575131 ], [ -73.9858061, 40.7574939 ], [ -73.9858047, 40.757458 ], [ -73.9857604, 40.7574412 ], [ -73.9857174, 40.7574603 ], [ -73.9857188, 40.7574963 ], [ -73.9857632, 40.7575131 ] ] ] } },
{ "type": "Feature", "properties": { "h3_index": "8d2a10725b6db7f", "resolution": 13, "pavement_id": 2 }, "geometry": { "type": "Polygon", "coordinates": [ [ [ -73.9857174, 40.7574603 ], [ -73.9857604, 40.7574412 ], [ -73.985759, 40.7574053 ], [ -73.9857146, 40.7573885 ], [ -73.9856717, 40.7574076 ], [ -73.9856731, 40.7574436 ], [ -73.9857174, 40.7574603 ] ] ] } },
{ "type": "Feature", "properties": { "h3_index": "8d2a100d679383f", "resolution": 13, "pavement_id": 3 }, "geometry": { "type": "Polygon", "coordinates": [ [ [ -73.985564, 40.7580041 ], [ -73.9856069, 40.757985 ], [ -73.9856055, 40.757949 ], [ -73.9855612, 40.7579322 ], [ -73.9855183, 40.7579514 ], [ -73.9855197, 40.7579873 ], [ -73.985564, 40.7580041 ] ] ] } },
{ "type": "Feature", "properties": { "h3_index": "8d2a100d679387f", "resolution": 13, "pavement_id": 3 }, "geometry": { "type": "Polygon", "coordinates": [ [ [ -73.9855183, 40.7579514 ], [ -73.9855612, 40.7579322 ], [ -73.9855598, 40.7578963 ], [ -73.9855154, 40.7578795 ], [ -73.9854725, 40.7578987 ], [ -73.9854739, 40.7579346 ], [ -73.9855183, 40.7579514 ] ] ] } },
{ "type": "Feature", "properties": { "h3_index": "8d2a100d679397f", "resolution": 13, "pavement_id": 3 }, "geometry": { "type": "Polygon", "coordinates": [ [ [ -73.9854767, 40.7580065 ], [ -73.9855197, 40.7579873 ], [ -73.9855183, 40.7579514 ], [ -73.9854739, 40.7579346 ], [ -73.985431, 40.7579537 ], [ -73.9854324, 40.7579897 ], [ -73.9854767, 40.7580065 ] ] ] } }
]
}
