{
"type": "FeatureCollection",
"name": "detected_sidewalks",
"crs": { "type": "name", "properties": { "name": "urn:ogc:def:crs:OGC:1.3:CRS84" } },
"features": [
{ "type": "Feature", "properties": { "id": 1, "feature_type": "pavement", "centroid_lat": 40.7573967, "centroid_lon": -73.9861559, "h3_centroid": "8d2a10725b6d73f", "h3_hex_count": 2, "area_sq_m": 13.54, "perimeter_m": 18.87, "num_vertices": 18, "bbox": [ 40.7573641, -73.9861759, 40.7574271, -73.9861357 ] }, "geometry": { "type": "Polygon", "coordinates": [ [ [ -73.986141047954561, 40.757427056533153 ], [ -73.986154458999636, 40.757427056533153 ], [ -73.986165187835695, 40.757418929720558 ], [ -73.986165187835695, 40.757412834611117 ], [ -73.98616787004471, 40.75741080290797 ], [ -73.98616787004471, 40.757386422470198 ], [ -73.986170552253725, 40.757384390767051 ], [ -73.986170552253725, 40.75737829565761 ], [ -73.986175916671755, 40.757376263954463 ], [ -73.986175916671755, 40.757364073735573 ], [ -73.986165187835695, 40.757364073735573 ], [ -73.986165187835695, 40.757370168845021 ], [ -73.986154458999636, 40.757374232251316 ], [ -73.986146412372591, 40.757380327360757 ], [ -73.986141047954561, 40.757388454173345 ], [ -73.986135683536531, 40.757390485876492 ], [ -73.986135683536531, 40.757398612689087 ], [ -73.986143730163576, 40.757402676095381 ], [ -73.986141047954561, 40.757427056533153 ] ] ] } },
{ "type": "Feature", "properties": { "id": 2, "feature_type": "pavement", "centroid_lat": 40.7574633, "centroid_lon": -73.9857459, "h3_centroid": "8d2a10725b6db3f", "h3_hex_count": 17, "area_sq_m": 390.33, "perimeter_m": 147.96, "num_vertices": 21, "bbox": [ 40.7573519, -73.9859989, 40.7576323, -73.9855831 ] }, "geometry": { "type": "Polygon", "coordinates": [ [ [ -73.985609970569612, 40.757630226847908 ], [ -73.985628746032717, 40.757632258551055 ], [ -73.985719941139223, 40.75755911723774 ], [ -73.985803089618685, 40.757433151642594 ], [ -73.985891602516176, 40.757449405267771 ], [ -73.985964022159578, 40.757427056533153 ], [ -73.985972068786623, 40.75739658098594 ], [ -73.985937200069429, 40.757374232251316 ], [ -73.985993526458742, 40.757368137141874 ], [ -73.985998890876772, 40.757351883516691 ], [ -73.985905013561251, 40.757351883516691 ], [ -73.985864780426027, 40.757422993126859 ], [ -73.985835276126863, 40.75741080290797 ], [ -73.985829911708834, 40.757351883516691 ], [ -73.985744081020357, 40.757351883516691 ], [ -73.985660932540895, 40.757455500377219 ], [ -73.985631428241732, 40.757431119939447 ], [ -73.985588512897493, 40.757483944221285 ], [ -73.985607288360598, 40.757508324659049 ], [ -73.985583148479463, 40.757569275753482 ], [ -73.985618017196657, 40.757589592784953 ], [ -73.985609970569612, 40.757630226847908 ] ] ] } },
{ "type": "Feature", "properties": { "id": 3, "feature_type": "pavement", "centroid_lat": 40.7579589, "centroid_lon": -73.9855223, "h3_centroid": "8d2a100d679383f", "h3_hex_count": 3, "area_sq_m": 30.25, "perimeter_m": 30.28, "num_vertices": 17, "bbox": [ 40.757933, -73.9855912, 40.7579776, -73.9854678 ] }, "geometry": { "type": "Polygon", "coordinates": [ [ [ -73.985591195106508, 40.75797764808614 ], [ -73.985591195106508, 40.75796545786725 ], [ -73.985575101852419, 40.757963426164103 ], [ -73.985572419643404, 40.757949204242074 ], [ -73.98553755092621, 40.757947172538927 ], [ -73.985529504299166, 40.75793295061689 ], [ -73.985508046627046, 40.757934982320037 ], [ -73.9855, 40.757947172538927 ], [ -73.985475860118868, 40.75794514083578 ], [ -73.985475860118868, 40.757957331054662 ], [ -73.985467813491823, 40.757959362757809 ], [ -73.985467813491823, 40.757967489570397 ], [ -73.985481224536898, 40.75797764808614 ], [ -73.985513411045076, 40.75797764808614 ], [ -73.98554291534424, 40.757967489570397 ], [ -73.985575101852419, 40.757969521273544 ], [ -73.985580466270449, 40.75797764808614 ], [ -73.985591195106508, 40.75797764808614 ] ] ] } }
]
}
